[{"OBJECT_NAME":"STARLINK-3566","OBJECT_ID":"2022-022AE","EPOCH":"2026-03-09T06:31:53.223456","MEAN_MOTION":15.08840019,"ECCENTRICITY":0.00012496,"INCLINATION":53.2183,"RA_OF_ASC_NODE":10.7124,"ARG_OF_PERICENTER":87.2489,"MEAN_ANOMALY":272.8646,"EPHEMERIS_TYPE":0,"CLASSIFICATION_TYPE":"U","NORAD_CAT_ID":51880,"ELEMENT_SET_NO":999,"REV_AT_EPOCH":22305,"BSTAR":8.4231109e-5,"MEAN_MOTION_DOT":1.053e-5,"MEAN_MOTION_DDOT":0},{"OBJECT_NAME":"CZ-4B DEB","OBJECT_ID":"2008-053G","EPOCH":"2026-03-08T12:59:24.951264","MEAN_MOTION":14.89391484,"ECCENTRICITY":0.01030319,"INCLINATION":97.6151,"RA_OF_ASC_NODE":98.188,"ARG_OF_PERICENTER":41.7816,"MEAN_ANOMALY":319.121,"EPHEMERIS_TYPE":0,"CLASSIFICATION_TYPE":"U","NORAD_CAT_ID":35571,"ELEMENT_SET_NO":999,"REV_AT_EPOCH":91755,"BSTAR":0.0016985241,"MEAN_MOTION_DOT":0.00017804,"MEAN_MOTION_DDOT":0}]
